start=new Date('2021-09-29T00:00:00.000Z').valueOf();
sats=[{"APOAPSIS":"548.015","RCS_SIZE":"LARGE","GP_ID":"185716071","CENTER_NAME":"EARTH","REV_AT_EPOCH":"3187","MEAN_MOTION_DOT":"-0.00000003","PERIOD":"95.592","ECCENTRICITY":"0.00011780","LAUNCH_DATE":"2021-03-11","EPOCH":"2021-09-28T12:41:26.391552","CLASSIFICATION_TYPE":"U","MEAN_MOTION":"15.06404696","COUNTRY_CODE":"US","OBJECT_ID":"2021-018AH","ELEMENT_SET_NO":"999","TIME_SYSTEM":"UTC","BSTAR":"0.00001866200000","FILE":"3132662","SITE":"AFETR","OBJECT_TYPE":"PAYLOAD","RA_OF_ASC_NODE":"343.2666","REF_FRAME":"TEME","ARG_OF_PERICENTER":"95.9122","MEAN_ANOMALY":"264.2001","EPHEMERIS_TYPE":"0","OBJECT_NAME":"STARLINK-2401","MEAN_MOTION_DDOT":"0.0000000000000","SEMIMAJOR_AXIS":"6925.334","INCLINATION":"53.0567","MEAN_ELEMENT_THEORY":"SGP4","TLE_LINE2":"2 47818  53.0567 343.2666 0001178  95.9122 264.2001 15.06404696 31876","TLE_LINE1":"1 47818U 21018AH  21271.52877768 -.00000003  00000-0  18662-4 0  9994","DECAY_DATE":null,"PERIAPSIS":"546.383","NORAD_CAT_ID":"47818"},{"COUNTRY_CODE":"US","MEAN_MOTION":"15.06402605","ELEMENT_SET_NO":"999","OBJECT_ID":"2021-018AJ","TIME_SYSTEM":"UTC","FILE":"3132662","BSTAR":"0.00003827200000","SITE":"AFETR","OBJECT_TYPE":"PAYLOAD","APOAPSIS":"547.916","RCS_SIZE":"MEDIUM","GP_ID":"185716321","CENTER_NAME":"EARTH","REV_AT_EPOCH":"3200","PERIOD":"95.592","MEAN_MOTION_DOT":"0.00000289","ECCENTRICITY":"0.00010260","LAUNCH_DATE":"2021-03-11","CLASSIFICATION_TYPE":"U","EPOCH":"2021-09-28T12:07:35.955264","INCLINATION":"53.0583","MEAN_ELEMENT_THEORY":"SGP4","TLE_LINE2":"2 47819  53.0583 338.3767 0001026  94.4839 265.6267 15.06402605 32006","TLE_LINE1":"1 47819U 21018AJ  21271.50527726  .00000289  00000-0  38272-4 0  9993","DECAY_DATE":null,"PERIAPSIS":"546.495","NORAD_CAT_ID":"47819","RA_OF_ASC_NODE":"338.3767","REF_FRAME":"TEME","ARG_OF_PERICENTER":"94.4839","MEAN_ANOMALY":"265.6267","EPHEMERIS_TYPE":"0","OBJECT_NAME":"STARLINK-2402","MEAN_MOTION_DDOT":"0.0000000000000","SEMIMAJOR_AXIS":"6925.341"},{"INCLINATION":"53.0564","TLE_LINE2":"2 47820  53.0564 348.1646 0001118  88.8527 271.2590 15.06396120 31864","MEAN_ELEMENT_THEORY":"SGP4","DECAY_DATE":null,"TLE_LINE1":"1 47820U 21018AK  21271.55227934  .00001287  00000-0  10525-3 0  9997","PERIAPSIS":"546.451","NORAD_CAT_ID":"47820","RA_OF_ASC_NODE":"348.1646","REF_FRAME":"TEME","ARG_OF_PERICENTER":"88.8527","MEAN_ANOMALY":"271.2590","EPHEMERIS_TYPE":"0","SEMIMAJOR_AXIS":"6925.360","MEAN_MOTION_DDOT":"0.0000000000000","OBJECT_NAME":"STARLINK-2403","MEAN_MOTION":"15.06396120","COUNTRY_CODE":"US","ELEMENT_SET_NO":"999","OBJECT_ID":"2021-018AK","FILE":"3132662","BSTAR":"0.00010525000000","TIME_SYSTEM":"UTC","SITE":"AFETR","OBJECT_TYPE":"PAYLOAD","APOAPSIS":"548.000","GP_ID":"185717070","RCS_SIZE":"LARGE","CENTER_NAME":"EARTH","MEAN_MOTION_DOT":"0.00001287","PERIOD":"95.592","REV_AT_EPOCH":"3186","ECCENTRICITY":"0.00011180","CLASSIFICATION_TYPE":"U","EPOCH":"2021-09-28T13:15:16.934976","LAUNCH_DATE":"2021-03-11"},{"LAUNCH_DATE":"2021-03-11","CLASSIFICATION_TYPE":"U","EPOCH":"2021-09-28T17:30:01.439712","ECCENTRICITY":"0.00010460","REV_AT_EPOCH":"3164","PERIOD":"95.593","MEAN_MOTION_DOT":"0.00000301","CENTER_NAME":"EARTH","RCS_SIZE":"LARGE","GP_ID":"185724073","APOAPSIS":"547.980","OBJECT_TYPE":"PAYLOAD","SITE":"AFETR","TIME_SYSTEM":"UTC","BSTAR":"0.00003907500000","FILE":"3132990","OBJECT_ID":"2021-018AL","ELEMENT_SET_NO":"999","COUNTRY_CODE":"US","MEAN_MOTION":"15.06386439","MEAN_MOTION_DDOT":"0.0000000000000","OBJECT_NAME":"STARLINK-2406","SEMIMAJOR_AXIS":"6925.390","EPHEMERIS_TYPE":"0","MEAN_ANOMALY":"275.4138","ARG_OF_PERICENTER":"84.6970","RA_OF_ASC_NODE":"337.3735","REF_FRAME":"TEME","NORAD_CAT_ID":"47821","PERIAPSIS":"546.531","TLE_LINE1":"1 47821U 21018AL  21271.72918333  .00000301  00000-0  39075-4 0  9995","DECAY_DATE":null,"MEAN_ELEMENT_THEORY":"SGP4","TLE_LINE2":"2 47821  53.0572 337.3735 0001046  84.6970 275.4138 15.06386439 31641","INCLINATION":"53.0572"},{"MEAN_ANOMALY":"264.8234","EPHEMERIS_TYPE":"0","SEMIMAJOR_AXIS":"6925.368","MEAN_MOTION_DDOT":"0.0000000000000","OBJECT_NAME":"STARLINK-2407","RA_OF_ASC_NODE":"348.2068","REF_FRAME":"TEME","ARG_OF_PERICENTER":"95.2896","PERIAPSIS":"546.375","NORAD_CAT_ID":"47822","INCLINATION":"53.0567","TLE_LINE2":"2 47822  53.0567 348.2068 0001239  95.2896 264.8234 15.06393540 31814","MEAN_ELEMENT_THEORY":"SGP4","DECAY_DATE":null,"TLE_LINE1":"1 47822U 21018AM  21271.54122691  .00000200  00000-0  32303-4 0  9995","MEAN_MOTION_DOT":"0.00000200","PERIOD":"95.593","REV_AT_EPOCH":"3181","ECCENTRICITY":"0.00012390","CLASSIFICATION_TYPE":"U","EPOCH":"2021-09-28T12:59:22.005024","LAUNCH_DATE":"2021-03-11","APOAPSIS":"548.091","GP_ID":"185715571","RCS_SIZE":"LARGE","CENTER_NAME":"EARTH","FILE":"3132662","BSTAR":"0.00003230300000","TIME_SYSTEM":"UTC","SITE":"AFETR","OBJECT_TYPE":"PAYLOAD","MEAN_MOTION":"15.06393540","COUNTRY_CODE":"US","ELEMENT_SET_NO":"999","OBJECT_ID":"2021-018AM"},{"PERIAPSIS":"546.409","NORAD_CAT_ID":"47823","INCLINATION":"53.0568","TLE_LINE1":"1 47823U 21018AN  21271.75591992 -.00001293  00000-0 -67925-4 0  9996","DECAY_DATE":null,"MEAN_ELEMENT_THEORY":"SGP4","TLE_LINE2":"2 47823  53.0568 337.2490 0001144  84.2662 275.8457 15.06404001 31631","MEAN_ANOMALY":"275.8457","OBJECT_NAME":"STARLINK-2408","MEAN_MOTION_DDOT":"0.0000000000000","SEMIMAJOR_AXIS":"6925.336","EPHEMERIS_TYPE":"0","ARG_OF_PERICENTER":"84.2662","RA_OF_ASC_NODE":"337.2490","REF_FRAME":"TEME","SITE":"AFETR","TIME_SYSTEM":"UTC","BSTAR":"-0.00006792500000","FILE":"3132974","OBJECT_TYPE":"PAYLOAD","ELEMENT_SET_NO":"999","OBJECT_ID":"2021-018AN","COUNTRY_CODE":"US","MEAN_MOTION":"15.06404001","REV_AT_EPOCH":"3163","PERIOD":"95.592","MEAN_MOTION_DOT":"-0.00001293","LAUNCH_DATE":"2021-03-11","EPOCH":"2021-09-28T18:08:31.481088","CLASSIFICATION_TYPE":"U","ECCENTRICITY":"0.00011440","APOAPSIS":"547.994","CENTER_NAME":"EARTH","RCS_SIZE":"LARGE","GP_ID":"185724052"},{"SEMIMAJOR_AXIS":"6925.353","MEAN_MOTION_DDOT":"0.0000000000000","OBJECT_NAME":"STARLINK-2409","EPHEMERIS_TYPE":"0","MEAN_ANOMALY":"281.1270","ARG_OF_PERICENTER":"78.9847","RA_OF_ASC_NODE":"337.3148","REF_FRAME":"TEME","NORAD_CAT_ID":"47824","PERIAPSIS":"546.428","DECAY_DATE":null,"TLE_LINE1":"1 47824U 21018AP  21271.74487017 -.00000248  00000-0  22446-5 0  9996","TLE_LINE2":"2 47824  53.0553 337.3148 0001141  78.9847 281.1270 15.06398524 31645","MEAN_ELEMENT_THEORY":"SGP4","INCLINATION":"53.0553","EPOCH":"2021-09-28T17:52:36.782688","CLASSIFICATION_TYPE":"U","LAUNCH_DATE":"2021-03-11","ECCENTRICITY":"0.00011410","PERIOD":"95.592","MEAN_MOTION_DOT":"-0.00000248","REV_AT_EPOCH":"3164","CENTER_NAME":"EARTH","GP_ID":"185724150","RCS_SIZE":"LARGE","APOAPSIS":"548.008","OBJECT_TYPE":"PAYLOAD","SITE":"AFETR","FILE":"3132980","BSTAR":"0.00000224460000","TIME_SYSTEM":"UTC","OBJECT_ID":"2021-018AP","ELEMENT_SET_NO":"999","MEAN_MOTION":"15.06398524","COUNTRY_CODE":"US"},{"NORAD_CAT_ID":"47825","PERIAPSIS":"546.439","TLE_LINE1":"1 47825U 21018AQ  21271.76329752  .00000968  00000-0  83881-4 0  9997","DECAY_DATE":null,"MEAN_ELEMENT_THEORY":"SGP4","TLE_LINE2":"2 47825  53.0552 337.2038 0001113 104.5559 255.5554 15.06401088 31647","INCLINATION":"53.0552","MEAN_MOTION_DDOT":"0.0000000000000","OBJECT_NAME":"STARLINK-2410","SEMIMAJOR_AXIS":"6925.345","EPHEMERIS_TYPE":"0","MEAN_ANOMALY":"255.5554","ARG_OF_PERICENTER":"104.5559","REF_FRAME":"TEME","RA_OF_ASC_NODE":"337.2038","OBJECT_TYPE":"PAYLOAD","SITE":"AFETR","TIME_SYSTEM":"UTC","FILE":"3132980","BSTAR":"0.00008388100000","ELEMENT_SET_NO":"999","OBJECT_ID":"2021-018AQ","COUNTRY_CODE":"US","MEAN_MOTION":"15.06401088","LAUNCH_DATE":"2021-03-11","CLASSIFICATION_TYPE":"U","EPOCH":"2021-09-28T18:19:08.905728","ECCENTRICITY":"0.00011130","REV_AT_EPOCH":"3164","PERIOD":"95.592","MEAN_MOTION_DOT":"0.00000968","CENTER_NAME":"EARTH","RCS_SIZE":"LARGE","GP_ID":"185724147","APOAPSIS":"547.981"},{"MEAN_ANOMALY":"278.4411","SEMIMAJOR_AXIS":"6925.382","OBJECT_NAME":"STARLINK-2411","MEAN_MOTION_DDOT":"0.0000000000000","EPHEMERIS_TYPE":"0","ARG_OF_PERICENTER":"81.6719","REF_FRAME":"TEME","RA_OF_ASC_NODE":"337.2342","PERIAPSIS":"546.386","NORAD_CAT_ID":"47826","INCLINATION":"53.0567","DECAY_DATE":null,"TLE_LINE1":"1 47826U 21018AR  21271.75961959  .00000307  00000-0  39542-4 0  9990","TLE_LINE2":"2 47826  53.0567 337.2342 0001244  81.6719 278.4411 15.06389055 31645","MEAN_ELEMENT_THEORY":"SGP4","PERIOD":"95.593","MEAN_MOTION_DOT":"0.00000307","REV_AT_EPOCH":"3164","EPOCH":"2021-09-28T18:13:51.132576","CLASSIFICATION_TYPE":"U","LAUNCH_DATE":"2021-03-11","ECCENTRICITY":"0.00012440","APOAPSIS":"548.109","CENTER_NAME":"EARTH","GP_ID":"185729157","RCS_SIZE":"LARGE","SITE":"AFETR","FILE":"3133164","BSTAR":"0.00003954200000","TIME_SYSTEM":"UTC","OBJECT_TYPE":"PAYLOAD","ELEMENT_SET_NO":"999","OBJECT_ID":"2021-018AR","MEAN_MOTION":"15.06389055","COUNTRY_CODE":"US"},{"COUNTRY_CODE":"US","MEAN_MOTION":"15.06397110","ELEMENT_SET_NO":"999","OBJECT_ID":"2021-018AS","BSTAR":"0.00007647100000","FILE":"3133033","TIME_SYSTEM":"UTC","SITE":"AFETR","OBJECT_TYPE":"PAYLOAD","APOAPSIS":"547.968","GP_ID":"185724132","RCS_SIZE":"LARGE","CENTER_NAME":"EARTH","MEAN_MOTION_DOT":"0.00000858","PERIOD":"95.592","REV_AT_EPOCH":"3178","ECCENTRICITY":"0.00010760","EPOCH":"2021-09-28T17:15:25.669440","CLASSIFICATION_TYPE":"U","LAUNCH_DATE":"2021-03-11","INCLINATION":"53.0570","TLE_LINE2":"2 47827  53.0570 327.4134 0001076  92.3517 267.7595 15.06397110 31788","MEAN_ELEMENT_THEORY":"SGP4","DECAY_DATE":null,"TLE_LINE1":"1 47827U 21018AS  21271.71904710  .00000858  00000-0  76471-4 0  9992","PERIAPSIS":"546.477","NORAD_CAT_ID":"47827","RA_OF_ASC_NODE":"327.4134","REF_FRAME":"TEME","ARG_OF_PERICENTER":"92.3517","MEAN_ANOMALY":"267.7595","EPHEMERIS_TYPE":"0","SEMIMAJOR_AXIS":"6925.357","MEAN_MOTION_DDOT":"0.0000000000000","OBJECT_NAME":"STARLINK-2413"}];
